STARLINK-37068          
1 68085U 26042S   26074.91668981 -.01544671  00000+0 -72357-2 0  9993
2 68085  53.1590 163.4512 0001014  71.5247 129.0544 15.85225316  3057
STARLINK-37067          
1 68086U 26042T   26074.91668981 -.01567596  00000+0 -73277-2 0  9997
2 68086  53.1590 163.4430 0001045  71.1419 133.4394 15.85309891  3051
STARLINK-37062          
1 68087U 26042U   26074.91668981 -.01580929  00000+0 -73577-2 0  9996
2 68087  53.1591 163.4351 0001208  75.2392 133.1483 15.85422013  3059
STARLINK-37059          
1 68088U 26042V   26074.91668981 -.01605350  00000+0 -74539-2 0  9992
2 68088  53.1592 163.4270 0001164  70.9361 141.3900 15.85515192  3056
STARLINK-37004          
1 68089U 26042W   26074.91668981 -.01614399  00000+0 -74605-2 0  9990
2 68089  53.1593 163.4197 0001147  74.6844 141.4051 15.85628876  3056
STARLINK-36320          
1 68090U 26042X   26074.91668981 -.01652655  00000+0 -76026-2 0  9998
2 68090  53.1592 163.4031 0001020  78.0259 145.9803 15.85793944  3044
STARLINK-36324          
1 68091U 26042Y   26074.91668981 -.01638849  00000+0 -75648-2 0  9997
2 68091  53.1590 163.4109 0001165  71.5335 148.6121 15.85697275  3045
STARLINK-36896          
1 68092U 26042Z   26074.91668981 -.01655175  00000+0 -75762-2 0  9996
2 68092  53.1589 163.3951 0001018  75.8499 151.9032 15.85900127  3055
STARLINK-36251          
1 68093U 26042AA  26074.91668981 -.01664013  00000+0 -75509-2 0  9997
2 68093  53.1589 163.3793 0001015  71.0219 164.3385 15.86092551  3047
STARLINK-36787          
1 68094U 26042AB  26074.91668981 -.01691627  00000+0 -77220-2 0  9991
2 68094  53.1586 163.3598 0000928  78.1689 166.3462 15.86024553  3044
STARLINK-36790          
1 68095U 26042AC  26074.91668981 -.01655806  00000+0 -75382-2 0  9998
2 68095  53.1590 163.3873 0001005  76.9363 154.5312 15.86011175  3047
STARLINK-36328          
1 68096U 26042AD  26074.91668981 -.01699987  00000+0 -77463-2 0  9999
2 68096  53.1590 163.3514 0001095  78.8430 169.7460 15.86074261  3042
STARLINK-36853          
1 68097U 26042AE  26074.91668981 -.01691599  00000+0 -77533-2 0  9999
2 68097  53.1590 163.3680 0000947  78.9632 161.6761 15.85941886  3058
GLOBAL-34               
1 68098U 26043A   26071.99616608  .00008884  00000+0  29276-3 0  9993
2 68098  42.0214  56.4132 0006382 310.0598  49.9679 15.31580793  1076
STARLINK-37022          
1 68101U 26044A   26074.91668981 -.01863371  10000-2 -45329-2 0  9998
2 68101  97.2819  35.2666 0001178  91.4960 278.6650 15.96389696  2400
STARLINK-37046          
1 68102U 26044B   26074.91668981 -.01855722  99369-3 -44832-2 0  9994
2 68102  97.2819  35.2678 0001164  82.7646 289.3058 15.96516637  2401
