[{"OBJECT_NAME":"STARLINK-37068","OBJECT_ID":"2026-042S","EPOCH":"2026-03-15T22:00:01.999584","MEAN_MOTION":15.85225316,"ECCENTRICITY":0.00010144,"INCLINATION":53.159,"RA_OF_ASC_NODE":163.4512,"ARG_OF_PERICENTER":71.5247,"MEAN_ANOMALY":129.0544,"EPHEMERIS_TYPE":0,"CLASSIFICATION_TYPE":"U","NORAD_CAT_ID":68085,"ELEMENT_SET_NO":999,"REV_AT_EPOCH":305,"BSTAR":-0.0072357413,"MEAN_MOTION_DOT":-0.01544671,"MEAN_MOTION_DDOT":0},{"OBJECT_NAME":"STARLINK-37067","OBJECT_ID":"2026-042T","EPOCH":"2026-03-15T22:00:01.999584","MEAN_MOTION":15.85309891,"ECCENTRICITY":0.00010455,"INCLINATION":53.159,"RA_OF_ASC_NODE":163.443,"ARG_OF_PERICENTER":71.1419,"MEAN_ANOMALY":133.4394,"EPHEMERIS_TYPE":0,"CLASSIFICATION_TYPE":"U","NORAD_CAT_ID":68086,"ELEMENT_SET_NO":999,"REV_AT_EPOCH":305,"BSTAR":-0.0073277258,"MEAN_MOTION_DOT":-0.01567596,"MEAN_MOTION_DDOT":0},{"OBJECT_NAME":"STARLINK-37062","OBJECT_ID":"2026-042U","EPOCH":"2026-03-15T22:00:01.999584","MEAN_MOTION":15.85422013,"ECCENTRICITY":0.00012086,"INCLINATION":53.1591,"RA_OF_ASC_NODE":163.4351,"ARG_OF_PERICENTER":75.2392,"MEAN_ANOMALY":133.1483,"EPHEMERIS_TYPE":0,"CLASSIFICATION_TYPE":"U","NORAD_CAT_ID":68087,"ELEMENT_SET_NO":999,"REV_AT_EPOCH":305,"BSTAR":-0.0073577346,"MEAN_MOTION_DOT":-0.01580929,"MEAN_MOTION_DDOT":0},{"OBJECT_NAME":"STARLINK-37059","OBJECT_ID":"2026-042V","EPOCH":"2026-03-15T22:00:01.999584","MEAN_MOTION":15.85515192,"ECCENTRICITY":0.00011641,"INCLINATION":53.1592,"RA_OF_ASC_NODE":163.427,"ARG_OF_PERICENTER":70.9361,"MEAN_ANOMALY":141.39,"EPHEMERIS_TYPE":0,"CLASSIFICATION_TYPE":"U","NORAD_CAT_ID":68088,"ELEMENT_SET_NO":999,"REV_AT_EPOCH":305,"BSTAR":-0.0074539431,"MEAN_MOTION_DOT":-0.0160535,"MEAN_MOTION_DDOT":0},{"OBJECT_NAME":"STARLINK-37004","OBJECT_ID":"2026-042W","EPOCH":"2026-03-15T22:00:01.999584","MEAN_MOTION":15.85628876,"ECCENTRICITY":0.00011479,"INCLINATION":53.1593,"RA_OF_ASC_NODE":163.4197,"ARG_OF_PERICENTER":74.6844,"MEAN_ANOMALY":141.4051,"EPHEMERIS_TYPE":0,"CLASSIFICATION_TYPE":"U","NORAD_CAT_ID":68089,"ELEMENT_SET_NO":999,"REV_AT_EPOCH":305,"BSTAR":-0.007460456,"MEAN_MOTION_DOT":-0.01614399,"MEAN_MOTION_DDOT":0},{"OBJECT_NAME":"STARLINK-36320","OBJECT_ID":"2026-042X","EPOCH":"2026-03-15T22:00:01.999584","MEAN_MOTION":15.85793944,"ECCENTRICITY":0.000102,"INCLINATION":53.1592,"RA_OF_ASC_NODE":163.4031,"ARG_OF_PERICENTER":78.0259,"MEAN_ANOMALY":145.9803,"EPHEMERIS_TYPE":0,"CLASSIFICATION_TYPE":"U","NORAD_CAT_ID":68090,"ELEMENT_SET_NO":999,"REV_AT_EPOCH":304,"BSTAR":-0.0076025589,"MEAN_MOTION_DOT":-0.01652655,"MEAN_MOTION_DDOT":0},{"OBJECT_NAME":"STARLINK-36324","OBJECT_ID":"2026-042Y","EPOCH":"2026-03-15T22:00:01.999584","MEAN_MOTION":15.85697275,"ECCENTRICITY":0.0001165,"INCLINATION":53.159,"RA_OF_ASC_NODE":163.4109,"ARG_OF_PERICENTER":71.5335,"MEAN_ANOMALY":148.6121,"EPHEMERIS_TYPE":0,"CLASSIFICATION_TYPE":"U","NORAD_CAT_ID":68091,"ELEMENT_SET_NO":999,"REV_AT_EPOCH":304,"BSTAR":-0.0075647508,"MEAN_MOTION_DOT":-0.01638849,"MEAN_MOTION_DDOT":0},{"OBJECT_NAME":"STARLINK-36896","OBJECT_ID":"2026-042Z","EPOCH":"2026-03-15T22:00:01.999584","MEAN_MOTION":15.85900127,"ECCENTRICITY":0.0001018,"INCLINATION":53.1589,"RA_OF_ASC_NODE":163.3951,"ARG_OF_PERICENTER":75.8499,"MEAN_ANOMALY":151.9032,"EPHEMERIS_TYPE":0,"CLASSIFICATION_TYPE":"U","NORAD_CAT_ID":68092,"ELEMENT_SET_NO":999,"REV_AT_EPOCH":305,"BSTAR":-0.0075762202,"MEAN_MOTION_DOT":-0.01655175,"MEAN_MOTION_DDOT":0},{"OBJECT_NAME":"STARLINK-36251","OBJECT_ID":"2026-042AA","EPOCH":"2026-03-15T22:00:01.999584","MEAN_MOTION":15.86092551,"ECCENTRICITY":0.00010158,"INCLINATION":53.1589,"RA_OF_ASC_NODE":163.3793,"ARG_OF_PERICENTER":71.0219,"MEAN_ANOMALY":164.3385,"EPHEMERIS_TYPE":0,"CLASSIFICATION_TYPE":"U","NORAD_CAT_ID":68093,"ELEMENT_SET_NO":999,"REV_AT_EPOCH":304,"BSTAR":-0.0075508805,"MEAN_MOTION_DOT":-0.01664013,"MEAN_MOTION_DDOT":0},{"OBJECT_NAME":"STARLINK-36787","OBJECT_ID":"2026-042AB","EPOCH":"2026-03-15T22:00:01.999584","MEAN_MOTION":15.86024553,"ECCENTRICITY":9.284e-5,"INCLINATION":53.1586,"RA_OF_ASC_NODE":163.3598,"ARG_OF_PERICENTER":78.1689,"MEAN_ANOMALY":166.3462,"EPHEMERIS_TYPE":0,"CLASSIFICATION_TYPE":"U","NORAD_CAT_ID":68094,"ELEMENT_SET_NO":999,"REV_AT_EPOCH":304,"BSTAR":-0.0077219979,"MEAN_MOTION_DOT":-0.01691627,"MEAN_MOTION_DDOT":0},{"OBJECT_NAME":"STARLINK-36790","OBJECT_ID":"2026-042AC","EPOCH":"2026-03-15T22:00:01.999584","MEAN_MOTION":15.86011175,"ECCENTRICITY":0.00010058,"INCLINATION":53.159,"RA_OF_ASC_NODE":163.3873,"ARG_OF_PERICENTER":76.9363,"MEAN_ANOMALY":154.5312,"EPHEMERIS_TYPE":0,"CLASSIFICATION_TYPE":"U","NORAD_CAT_ID":68095,"ELEMENT_SET_NO":999,"REV_AT_EPOCH":304,"BSTAR":-0.0075382395,"MEAN_MOTION_DOT":-0.01655806,"MEAN_MOTION_DDOT":0},{"OBJECT_NAME":"STARLINK-36328","OBJECT_ID":"2026-042AD","EPOCH":"2026-03-15T22:00:01.999584","MEAN_MOTION":15.86074261,"ECCENTRICITY":0.00010955,"INCLINATION":53.159,"RA_OF_ASC_NODE":163.3514,"ARG_OF_PERICENTER":78.843,"MEAN_ANOMALY":169.746,"EPHEMERIS_TYPE":0,"CLASSIFICATION_TYPE":"U","NORAD_CAT_ID":68096,"ELEMENT_SET_NO":999,"REV_AT_EPOCH":304,"BSTAR":-0.0077463297,"MEAN_MOTION_DOT":-0.01699987,"MEAN_MOTION_DDOT":0},{"OBJECT_NAME":"STARLINK-36853","OBJECT_ID":"2026-042AE","EPOCH":"2026-03-15T22:00:01.999584","MEAN_MOTION":15.85941886,"ECCENTRICITY":9.479e-5,"INCLINATION":53.159,"RA_OF_ASC_NODE":163.368,"ARG_OF_PERICENTER":78.9632,"MEAN_ANOMALY":161.6761,"EPHEMERIS_TYPE":0,"CLASSIFICATION_TYPE":"U","NORAD_CAT_ID":68097,"ELEMENT_SET_NO":999,"REV_AT_EPOCH":305,"BSTAR":-0.0077533023,"MEAN_MOTION_DOT":-0.01691599,"MEAN_MOTION_DDOT":0},{"OBJECT_NAME":"GLOBAL-34","OBJECT_ID":"2026-043A","EPOCH":"2026-03-12T23:54:28.749312","MEAN_MOTION":15.31580793,"ECCENTRICITY":0.00063821,"INCLINATION":42.0214,"RA_OF_ASC_NODE":56.4132,"ARG_OF_PERICENTER":310.0598,"MEAN_ANOMALY":49.9679,"EPHEMERIS_TYPE":0,"CLASSIFICATION_TYPE":"U","NORAD_CAT_ID":68098,"ELEMENT_SET_NO":999,"REV_AT_EPOCH":107,"BSTAR":0.00029276458,"MEAN_MOTION_DOT":8.884e-5,"MEAN_MOTION_DDOT":0},{"OBJECT_NAME":"STARLINK-37022","OBJECT_ID":"2026-044A","EPOCH":"2026-03-15T22:00:01.999584","MEAN_MOTION":15.96389696,"ECCENTRICITY":0.00011783,"INCLINATION":97.2819,"RA_OF_ASC_NODE":35.2666,"ARG_OF_PERICENTER":91.496,"MEAN_ANOMALY":278.665,"EPHEMERIS_TYPE":0,"CLASSIFICATION_TYPE":"U","NORAD_CAT_ID":68101,"ELEMENT_SET_NO":999,"REV_AT_EPOCH":240,"BSTAR":-0.0045328578,"MEAN_MOTION_DOT":-0.01863371,"MEAN_MOTION_DDOT":0.0010000069},{"OBJECT_NAME":"STARLINK-37046","OBJECT_ID":"2026-044B","EPOCH":"2026-03-15T22:00:01.999584","MEAN_MOTION":15.96516637,"ECCENTRICITY":0.00011642,"INCLINATION":97.2819,"RA_OF_ASC_NODE":35.2678,"ARG_OF_PERICENTER":82.7646,"MEAN_ANOMALY":289.3058,"EPHEMERIS_TYPE":0,"CLASSIFICATION_TYPE":"U","NORAD_CAT_ID":68102,"ELEMENT_SET_NO":999,"REV_AT_EPOCH":240,"BSTAR":-0.0044831646,"MEAN_MOTION_DOT":-0.01855722,"MEAN_MOTION_DDOT":0.00099369179}]
